{
  "type": "FeatureCollection",
  "features": [
    {
      "type": "Feature",
      "properties": {
        "norad_id": 64694,
        "name": "GOSAT-GW (IBUKI GW)",
        "group": "resource",
        "lat": 69.80867219070176,
        "lon": 130.01551634310226,
        "alt_km": 661.1794797499642,
        "timestamp": "2025-12-17T23:38:06.521087+00:00",
        "meta_object_name": "GOSAT-GW (IBUKI GW)",
        "meta_object_id": "2025-141A",
        "meta_epoch": "2025-12-17T14:57:38.484576",
        "meta_mean_motion": 14.67562756,
        "meta_eccentricity": 0.00014349,
        "meta_inclination": 98.0432,
        "meta_ra_of_asc_node": 287.0477,
        "meta_arg_of_pericenter": 83.6558,
        "meta_mean_anomaly": 276.4811,
        "meta_ephemeris_type": 0,
        "meta_classification_type": "U",
        "meta_norad_cat_id": 64694,
        "meta_element_set_no": 999,
        "meta_rev_at_epoch": 2521,
        "meta_bstar": 0.00015234471,
        "meta_mean_motion_dot": 8.17e-06,
        "meta_mean_motion_ddot": 0,
        "tle_line1": "1 64694U 25141A   25351.62336209  .00000817  00000+0  15234-3 0  9992",
        "tle_line2": "2 64694  98.0432 287.0477 0001434  83.6558 276.4811 14.67562756 25217"
      },
      "geometry": {
        "type": "Point",
        "coordinates": [
          130.01551634310226,
          69.80867219070176
        ]
      }
    },
    {
      "type": "Feature",
      "properties": {
        "norad_id": 64876,
        "name": "IONOSFERA-M 3",
        "group": "resource",
        "lat": -38.024121132996825,
        "lon": -39.518351810798386,
        "alt_km": 826.8358745699543,
        "timestamp": "2025-12-17T23:38:06.521097+00:00",
        "meta_object_name": "IONOSFERA-M 3",
        "meta_object_id": "2025-155A",
        "meta_epoch": "2025-12-17T15:22:08.857056",
        "meta_mean_motion": 14.21442215,
        "meta_eccentricity": 0.00021066,
        "meta_inclination": 98.5789,
        "meta_ra_of_asc_node": 313.3679,
        "meta_arg_of_pericenter": 52.0099,
        "meta_mean_anomaly": 308.1269,
        "meta_ephemeris_type": 0,
        "meta_classification_type": "U",
        "meta_norad_cat_id": 64876,
        "meta_element_set_no": 999,
        "meta_rev_at_epoch": 2061,
        "meta_bstar": 4.3155589e-05,
        "meta_mean_motion_dot": 5.2e-07,
        "meta_mean_motion_ddot": 0,
        "tle_line1": "1 64876U 25155A   25351.64038029  .00000052  00000+0  43156-4 0  9996",
        "tle_line2": "2 64876  98.5789 313.3679 0002106  52.0099 308.1269 14.21442215 20619"
      },
      "geometry": {
        "type": "Point",
        "coordinates": [
          -39.518351810798386,
          -38.024121132996825
        ]
      }
    },
    {
      "type": "Feature",
      "properties": {
        "norad_id": 64877,
        "name": "IONOSFERA-M 4",
        "group": "resource",
        "lat": 37.1359638150723,
        "lon": 140.18597384824741,
        "alt_km": 817.667267135721,
        "timestamp": "2025-12-17T23:38:06.521107+00:00",
        "meta_object_name": "IONOSFERA-M 4",
        "meta_object_id": "2025-155B",
        "meta_epoch": "2025-12-17T14:31:16.470336",
        "meta_mean_motion": 14.2144339,
        "meta_eccentricity": 0.00014908,
        "meta_inclination": 98.5787,
        "meta_ra_of_asc_node": 313.253,
        "meta_arg_of_pericenter": 58.6848,
        "meta_mean_anomaly": 301.4476,
        "meta_ephemeris_type": 0,
        "meta_classification_type": "U",
        "meta_norad_cat_id": 64877,
        "meta_element_set_no": 999,
        "meta_rev_at_epoch": 2060,
        "meta_bstar": 4.3673002e-05,
        "meta_mean_motion_dot": 5.3e-07,
        "meta_mean_motion_ddot": 0,
        "tle_line1": "1 64877U 25155B   25351.60505174  .00000053  00000+0  43673-4 0  9998",
        "tle_line2": "2 64877  98.5787 313.2530 0001490  58.6848 301.4476 14.21443390 20602"
      },
      "geometry": {
        "type": "Point",
        "coordinates": [
          140.18597384824741,
          37.1359638150723
        ]
      }
    },
    {
      "type": "Feature",
      "properties": {
        "norad_id": 64899,
        "name": "MICROCARB",
        "group": "resource",
        "lat": 8.581279737544811,
        "lon": -111.53758258282863,
        "alt_km": 647.2566269611652,
        "timestamp": "2025-12-17T23:38:06.521138+00:00",
        "meta_object_name": "MICROCARB",
        "meta_object_id": "2025-156A",
        "meta_epoch": "2025-12-17T11:26:30.117408",
        "meta_mean_motion": 14.72064901,
        "meta_eccentricity": 0.00174088,
        "meta_inclination": 98.0022,
        "meta_ra_of_asc_node": 66.7462,
        "meta_arg_of_pericenter": 130.4021,
        "meta_mean_anomaly": 229.8709,
        "meta_ephemeris_type": 0,
        "meta_classification_type": "U",
        "meta_norad_cat_id": 64899,
        "meta_element_set_no": 999,
        "meta_rev_at_epoch": 2123,
        "meta_bstar": 0.00010424062,
        "meta_mean_motion_dot": 6.07e-06,
        "meta_mean_motion_ddot": 0,
        "tle_line1": "1 64899U 25156A   25351.47673747  .00000607  00000+0  10424-3 0  9992",
        "tle_line2": "2 64899  98.0022  66.7462 0017408 130.4021 229.8709 14.72064901 21230"
      },
      "geometry": {
        "type": "Point",
        "coordinates": [
          -111.53758258282863,
          8.581279737544811
        ]
      }
    },
    {
      "type": "Feature",
      "properties": {
        "norad_id": 64900,
        "name": "CO3D 3",
        "group": "resource",
        "lat": 39.50498589870368,
        "lon": 62.096297913197816,
        "alt_km": 501.5657967253601,
        "timestamp": "2025-12-17T23:38:06.521152+00:00",
        "meta_object_name": "CO3D 3",
        "meta_object_id": "2025-156B",
        "meta_epoch": "2025-12-17T17:08:28.374720",
        "meta_mean_motion": 15.20201422,
        "meta_eccentricity": 0.00014,
        "meta_inclination": 97.4341,
        "meta_ra_of_asc_node": 68.0098,
        "meta_arg_of_pericenter": 84.1506,
        "meta_mean_anomaly": 275.9889,
        "meta_ephemeris_type": 0,
        "meta_classification_type": "U",
        "meta_norad_cat_id": 64900,
        "meta_element_set_no": 999,
        "meta_rev_at_epoch": 2196,
        "meta_bstar": 6.5354e-05,
        "meta_mean_motion_dot": 1.347e-05,
        "meta_mean_motion_ddot": 0,
        "tle_line1": "1 64900U 25156B   25351.71421730  .00001347  00000+0  65354-4 0  9990",
        "tle_line2": "2 64900  97.4341  68.0098 0001400  84.1506 275.9889 15.20201422 21964"
      },
      "geometry": {
        "type": "Point",
        "coordinates": [
          62.096297913197816,
          39.50498589870368
        ]
      }
    },
    {
      "type": "Feature",
      "properties": {
        "norad_id": 64901,
        "name": "CO3D 4",
        "group": "resource",
        "lat": 38.60568197325965,
        "lon": 62.292375766634265,
        "alt_km": 502.97053532166774,
        "timestamp": "2025-12-17T23:38:06.521164+00:00",
        "meta_object_name": "CO3D 4",
        "meta_object_id": "2025-156C",
        "meta_epoch": "2025-12-17T15:33:55.698048",
        "meta_mean_motion": 15.20212443,
        "meta_eccentricity": 0.00011478,
        "meta_inclination": 97.4346,
        "meta_ra_of_asc_node": 67.9457,
        "meta_arg_of_pericenter": 180.0092,
        "meta_mean_anomaly": 180.1143,
        "meta_ephemeris_type": 0,
        "meta_classification_type": "U",
        "meta_norad_cat_id": 64901,
        "meta_element_set_no": 999,
        "meta_rev_at_epoch": 2195,
        "meta_bstar": 0.00024180993,
        "meta_mean_motion_dot": 5.172e-05,
        "meta_mean_motion_ddot": 0,
        "tle_line1": "1 64901U 25156C   25351.64856132  .00005172  00000+0  24181-3 0  9993",
        "tle_line2": "2 64901  97.4346  67.9457 0001147 180.0092 180.1143 15.20212443 21955"
      },
      "geometry": {
        "type": "Point",
        "coordinates": [
          62.292375766634265,
          38.60568197325965
        ]
      }
    },
    {
      "type": "Feature",
      "properties": {
        "norad_id": 64902,
        "name": "CO3D 2",
        "group": "resource",
        "lat": -73.20638194130987,
        "lon": -137.34638170267408,
        "alt_km": 504.1552389243534,
        "timestamp": "2025-12-17T23:38:06.521174+00:00",
        "meta_object_name": "CO3D 2",
        "meta_object_id": "2025-156D",
        "meta_epoch": "2025-12-12T21:01:26.694624",
        "meta_mean_motion": 15.22031437,
        "meta_eccentricity": 0.00203863,
        "meta_inclination": 97.4215,
        "meta_ra_of_asc_node": 63.2016,
        "meta_arg_of_pericenter": 351.3096,
        "meta_mean_anomaly": 8.7784,
        "meta_ephemeris_type": 0,
        "meta_classification_type": "U",
        "meta_norad_cat_id": 64902,
        "meta_element_set_no": 999,
        "meta_rev_at_epoch": 2122,
        "meta_bstar": 0.00010503321,
        "meta_mean_motion_dot": 2.342e-05,
        "meta_mean_motion_ddot": 0,
        "tle_line1": "1 64902U 25156D   25346.87600341  .00002342  00000+0  10503-3 0  9991",
        "tle_line2": "2 64902  97.4215  63.2016 0020386 351.3096   8.7784 15.22031437 21224"
      },
      "geometry": {
        "type": "Point",
        "coordinates": [
          -137.34638170267408,
          -73.20638194130987
        ]
      }
    }
  ]
}